ONEWEB-0474             
1 51654U 22012AJ  24076.87524527  .00000495  00000+0  13826-2 0  9996
2 51654  87.8972 199.6465 0001621  96.3365 263.7946 13.10371150101603
ONEWEB-0475             
1 51655U 22012AK  24076.75789570  .00000003  00000+0 -24556-4 0  9995
2 51655  87.9270 169.5023 0001754  86.0660 274.0672 13.17650404105382
ONEWEB-0490             
1 54113U 22138A   24076.59819160  .00000036  00000+0  57915-4 0  9997
2 54113  87.9109 108.7137 0001835  91.8765 268.2577 13.19722809 68339
ONEWEB-0492             
1 54114U 22138B   24076.62345657 -.00000017  00000+0 -74471-4 0  9994
2 54114  87.9113 108.7064 0001672  88.3926 271.7399 13.19726981 68340
ONEWEB-0495             
1 54115U 22138C   24076.60134083  .00000031  00000+0  43938-4 0  9990
2 54115  87.9115 108.7227 0001854  81.4344 278.6999 13.19726690 68321
ONEWEB-0497             
1 54116U 22138D   24076.61398692 -.00000033  00000+0 -11457-3 0  9994
2 54116  87.9110 108.7123 0001823  91.0341 269.1001 13.19726099 68313
ONEWEB-0499             
1 54117U 22138E   24076.59661378  .00000062  00000+0  12247-3 0  9994
2 54117  87.9115 108.7130 0002412  86.7058 273.4351 13.19722741 68325
ONEWEB-0500             
1 54118U 22138F   24076.59977770  .00000159  00000+0  36388-3 0  9990
2 54118  87.9113 108.7114 0001934  94.4192 265.7161 13.19724825 69205
